INTELSAT 23 (IS-23)     
1 38867U 12057A   26195.18664999 -.00000291  00000+0  00000+0 0  9993
2 38867   0.0157  27.7388 0000348 163.8403 114.6764  1.00273717 50228
BEIDOU-2 G6             
1 38953U 12059A   26195.07671355 -.00000185  00000+0  00000+0 0  9995
2 38953   4.4864  73.2265 0008761 327.1522   3.1566  1.00273967 50174
LUCH-5B                 
1 38977U 12061A   26194.84297469 -.00000149  00000+0  00000+0 0  9998
2 38977  10.5383  49.6107 0003859 146.1874  23.1186  1.00270493 49874
YAMAL 300K              
1 38978U 12061B   26195.16750183  .00000000  00000+0  00000+0 0  9997
2 38978   0.0166  29.2923 0000657 219.6023 286.4048  1.00268935 49906
STAR ONE C3             
1 38991U 12062A   26195.19196001  .00000000  00000+0  00000+0 0  9999
2 38991   0.0240  48.6552 0002361  80.3956 157.1244  1.00266864 50036
EUTELSAT 21B            
1 38992U 12062B   26195.13560836  .00000123  00000+0  00000+0 0  9991
2 38992   0.0664  11.1849 0003234 108.4856 242.7148  1.00269819 50095
ECHOSTAR 16             
1 39008U 12065A   26194.83398565 -.00000287  00000+0  00000+0 0  9999
2 39008   0.0192  61.0187 0002077  47.2450  62.1785  1.00269959 49918
ZHONGXING-12            
1 39017U 12067A   26195.07732023 -.00000213  00000+0  00000+0 0  9998
2 39017   0.0313  95.2949 0002569  18.1674 293.8108  1.00271815 49779
EUTELSAT 70B            
1 39020U 12069A   26195.14531507 -.00000049  00000+0  00000+0 0  9993
2 39020   0.0607 358.5334 0003645 113.7676 302.5158  1.00271287 49778
YAMAL 402               
1 39022U 12070A   26195.21349609  .00000078  00000+0  00000+0 0  9996
2 39022   1.3319  83.8196 0003535  25.6779 314.3261  1.00270942 49662
SKYNET 5D               
1 39034U 12075A   26195.14176171  .00000093  00000+0  00000+0 0  9995
2 39034   0.0682 355.6643 0003348 127.1353 272.9911  1.00269622 49427
MEXSAT 3                
1 39035U 12075B   26195.19386396  .00000000  00000+0  00000+0 0  9991
2 39035   0.0190  48.4813 0000972  59.8525 138.7447  1.00268848  7325
TDRS 11                 
1 39070U 13004A   26195.12742943  .00000073  00000+0  00000+0 0  9990
2 39070   3.5600  31.6814 0004583  31.2047 100.8061  1.00279038 46966
AMAZONAS 3              
1 39078U 13006A   26195.12448552  .00000000  00000+0  00000+0 0  9999
2 39078   0.0095 237.6897 0003271 274.5556 123.5681  1.00270538 45182
AZERSPACE 1             
1 39079U 13006B   26195.14046170  .00000127  00000+0  00000+0 0  9992
2 39079   0.0169   3.0374 0001676 145.7456 239.7728  1.00269545 49075
SBIRS GEO-2 (USA 241)   
1 39120U 13011A   26195.05016847 -.00000295  00000+0  00000+0 0  9990
2 39120   4.5456  52.5088 0002052  53.3119 154.3562  1.00271552 48809
EUTELSAT 117 WEST A     
1 39122U 13012A   26195.10815418 -.00000019  00000+0  00000+0 0  9994
2 39122   0.0207  50.1833 0002629  68.9493  94.9679  1.00271700 48707
ANIK G1                 
1 39127U 13014A   26195.22365479 -.00000081  00000+0  00000+0 0  9990
2 39127   0.0465 251.7427 0001637 233.3150 140.2371  1.00271295 48525
ZHONGXING-11            
1 39157U 13020A   26195.07931356 -.00000296  00000+0  00000+0 0  9994
2 39157   0.0328  52.1504 0002012  34.5743 331.6675  1.00269135 48165
EUTELSAT 7B             
1 39163U 13022A   26195.06137347  .00000042  00000+0  00000+0 0  9998
2 39163   0.0716 335.2160 0003573  70.4011 275.4118  1.00273116 48213
WGS F5 (USA 243)        
1 39168U 13024A   26194.90707958  .00000000  00000+0  00000+0 0  9992
2 39168   0.0260  56.5393 0000325 192.7865 316.5064  1.00268978 47441
SES-6                   
1 39172U 13026A   26194.83814566 -.00000267  00000+0  00000+0 0  9991
2 39172   0.0272 324.6493 0002141 148.6357  79.6458  1.00264955 47998
IRNSS-1A                
1 39199U 13034A   26191.72043649  .00000047  00000+0  00000+0 0  9995
2 39199  35.7704  63.5328 0017567 183.4462 356.2994  1.00281941 47601
MUOS-2                  
1 39206U 13036A   26194.80893887 -.00000021  00000+0  00000+0 0  9998
2 39206   5.0467  45.5543 0052589 176.3728 172.9203  1.00272161 47457
ALPHASAT                
1 39215U 13038A   26194.99370941  .00000127  00000+0  00000+0 0  9997
2 39215   2.9990   1.1529 0002285 138.9239 174.3914  1.00271961 44285
INSAT-3D                
1 39216U 13038B   26194.87184412 -.00000346  00000+0  00000+0 0  9995
2 39216   1.9926  82.2017 0000507  85.6144 207.2989  1.00269044 47341
WGS F6 (USA 244)        
1 39222U 13041A   26195.21314708  .00000082  00000+0  00000+0 0  9994
2 39222   0.0176  35.8180 0000481 190.4986   7.3050  1.00270616 46333
ES'HAIL 1               
1 39233U 13044A   26195.13638836  .00000137  00000+0  00000+0 0  9992
2 39233   0.0511 341.9387 0002146 135.2689 249.4310  1.00274381 46897
GSAT-7                  
1 39234U 13044B   26195.14583507 -.00000083  00000+0  00000+0 0  9999
2 39234   0.1481  89.6631 0003247 176.8382 151.9609  1.00271192 45521
AMOS-4                  
1 39237U 13045A   26195.14418839  .00000001  00000+0  00000+0 0  9997
2 39237   0.0335 255.4222 0002212 187.5881 325.9092  1.00270438 47224
AEHF-3 (USA 246)        
1 39256U 13050A   26195.19695845  .00000019  00000+0  00000+0 0  9992
2 39256   5.3582  66.9362 0088417 187.6907 344.0649  1.00270797 45921
ASTRA 2E                
1 39285U 13056A   26195.13690836  .00000144  00000+0  00000+0 0  9998
2 39285   0.0783 311.9423 0002707 154.4493 263.3871  1.00268682 46683
