OBJECT_NAME,OBJECT_ID,EPOCH,MEAN_MOTION,ECCENTRICITY,INCLINATION,RA_OF_ASC_NODE,ARG_OF_PERICENTER,MEAN_ANOMALY,EPHEMERIS_TYPE,CLASSIFICATION_TYPE,NORAD_CAT_ID,ELEMENT_SET_NO,REV_AT_EPOCH,BSTAR,MEAN_MOTION_DOT,MEAN_MOTION_DDOT
INTELSAT 23 (IS-23),2012-057A,2026-07-14T04:28:46.559136,1.00273717,.0000348,0.0157,27.7388,163.8403,114.6764,0,U,38867,999,5022,0,-.291E-5,0
BEIDOU-2 G6,2012-059A,2026-07-14T01:50:28.050720,1.00273967,.0008761,4.4864,73.2265,327.1522,3.1566,0,U,38953,999,5017,0,-.185E-5,0
LUCH-5B,2012-061A,2026-07-13T20:13:53.013216,1.00270493,.0003859,10.5383,49.6107,146.1874,23.1186,0,U,38977,999,4987,0,-.149E-5,0
YAMAL 300K,2012-061B,2026-07-14T04:01:12.158112,1.00268935,.0000657,0.0166,29.2923,219.6023,286.4048,0,U,38978,999,4990,0,0,0
STAR ONE C3,2012-062A,2026-07-14T04:36:25.344864,1.00266864,.0002361,0.0240,48.6552,80.3956,157.1244,0,U,38991,999,5003,0,0,0
EUTELSAT 21B,2012-062B,2026-07-14T03:15:16.562304,1.00269819,.0003234,0.0664,11.1849,108.4856,242.7148,0,U,38992,999,5009,0,.123E-5,0
ECHOSTAR 16,2012-065A,2026-07-13T20:00:56.360160,1.00269959,.0002077,0.0192,61.0187,47.2450,62.1785,0,U,39008,999,4991,0,-.287E-5,0
ZHONGXING-12,2012-067A,2026-07-14T01:51:20.467872,1.00271815,.0002569,0.0313,95.2949,18.1674,293.8108,0,U,39017,999,4977,0,-.213E-5,0
EUTELSAT 70B,2012-069A,2026-07-14T03:29:15.222048,1.00271287,.0003645,0.0607,358.5334,113.7676,302.5158,0,U,39020,999,4977,0,-.49E-6,0
YAMAL 402,2012-070A,2026-07-14T05:07:26.062176,1.00270942,.0003535,1.3319,83.8196,25.6779,314.3261,0,U,39022,999,4966,0,.78E-6,0
SKYNET 5D,2012-075A,2026-07-14T03:24:08.211744,1.00269622,.0003348,0.0682,355.6643,127.1353,272.9911,0,U,39034,999,4942,0,.93E-6,0
MEXSAT 3,2012-075B,2026-07-14T04:39:09.846144,1.00268848,.0000972,0.0190,48.4813,59.8525,138.7447,0,U,39035,999,732,0,0,0
TDRS 11,2013-004A,2026-07-14T03:03:29.902752,1.00279038,.0004583,3.5600,31.6814,31.2047,100.8061,0,U,39070,999,4696,0,.73E-6,0
AMAZONAS 3,2013-006A,2026-07-14T02:59:15.548928,1.00270538,.0003271,0.0095,237.6897,274.5556,123.5681,0,U,39078,999,4518,0,0,0
AZERSPACE 1,2013-006B,2026-07-14T03:22:15.890880,1.00269545,.0001676,0.0169,3.0374,145.7456,239.7728,0,U,39079,999,4907,0,.127E-5,0
SBIRS GEO-2 (USA 241),2013-011A,2026-07-14T01:12:14.555808,1.00271552,.0002052,4.5456,52.5088,53.3119,154.3562,0,U,39120,999,4880,0,-.295E-5,0
EUTELSAT 117 WEST A,2013-012A,2026-07-14T02:35:44.521152,1.00271700,.0002629,0.0207,50.1833,68.9493,94.9679,0,U,39122,999,4870,0,-.19E-6,0
ANIK G1,2013-014A,2026-07-14T05:22:03.773856,1.00271295,.0001637,0.0465,251.7427,233.3150,140.2371,0,U,39127,999,4852,0,-.81E-6,0
ZHONGXING-11,2013-020A,2026-07-14T01:54:12.691584,1.00269135,.0002012,0.0328,52.1504,34.5743,331.6675,0,U,39157,999,4816,0,-.296E-5,0
EUTELSAT 7B,2013-022A,2026-07-14T01:28:22.667808,1.00273116,.0003573,0.0716,335.2160,70.4011,275.4118,0,U,39163,999,4821,0,.42E-6,0
WGS F5 (USA 243),2013-024A,2026-07-13T21:46:11.675712,1.00268978,.0000325,0.0260,56.5393,192.7865,316.5064,0,U,39168,999,4744,0,0,0
SES-6,2013-026A,2026-07-13T20:06:55.785024,1.00264955,.0002141,0.0272,324.6493,148.6357,79.6458,0,U,39172,999,4799,0,-.267E-5,0
IRNSS-1A,2013-034A,2026-07-10T17:17:25.712736,1.00281941,.0017567,35.7704,63.5328,183.4462,356.2994,0,U,39199,999,4760,0,.47E-6,0
MUOS-2,2013-036A,2026-07-13T19:24:52.318368,1.00272161,.0052589,5.0467,45.5543,176.3728,172.9203,0,U,39206,999,4745,0,-.21E-6,0
ALPHASAT,2013-038A,2026-07-13T23:50:56.493024,1.00271961,.0002285,2.9990,1.1529,138.9239,174.3914,0,U,39215,999,4428,0,.127E-5,0
INSAT-3D,2013-038B,2026-07-13T20:55:27.331968,1.00269044,.0000507,1.9926,82.2017,85.6144,207.2989,0,U,39216,999,4734,0,-.346E-5,0
WGS F6 (USA 244),2013-041A,2026-07-14T05:06:55.907712,1.00270616,.0000481,0.0176,35.8180,190.4986,7.3050,0,U,39222,999,4633,0,.82E-6,0
ES'HAIL 1,2013-044A,2026-07-14T03:16:23.954304,1.00274381,.0002146,0.0511,341.9387,135.2689,249.4310,0,U,39233,999,4689,0,.137E-5,0
GSAT-7,2013-044B,2026-07-14T03:30:00.150048,1.00271192,.0003247,0.1481,89.6631,176.8382,151.9609,0,U,39234,999,4552,0,-.83E-6,0
AMOS-4,2013-045A,2026-07-14T03:27:37.876896,1.00270438,.0002212,0.0335,255.4222,187.5881,325.9092,0,U,39237,999,4722,0,.1E-7,0
AEHF-3 (USA 246),2013-050A,2026-07-14T04:43:37.210080,1.00270797,.0088417,5.3582,66.9362,187.6907,344.0649,0,U,39256,999,4592,0,.19E-6,0
ASTRA 2E,2013-056A,2026-07-14T03:17:08.882304,1.00268682,.0002707,0.0783,311.9423,154.4493,263.3871,0,U,39285,999,4668,0,.144E-5,0
